NORAD_CAT_ID,OBJECT_NAME,OBJECT_TYPE,EPOCH,MEAN_MOTION,ECCENTRICITY,INCLINATION,RA_OF_ASC_NODE,ARG_OF_PERICENTER,MEAN_ANOMALY,BSTAR,MEAN_MOTION_DOT,MEAN_MOTION_DDOT,TLE_LINE0,TLE_LINE1,TLE_LINE2,SEMIMAJOR_AXIS,PERIOD,APOGEE,PERIGEE,DECAYED
51468.0,STARLINK-3174,PAYLOAD,2022-03-03 22:00:00,15.72458627,0.0001613,53.2174,32.804,41.7886,171.1715,-0.0057405,-0.00717739,0.0,0 STARLINK-3174,1 51468U 22010N   22062.91667824 -.00717739  00000-0 -57405-2 0  9993,2 51468  53.2174  32.8040 0001613  41.7886 171.1715 15.72458627  3711,6730.01,91.576,352.96,350.789,0.0
51468.0,STARLINK-3174,PAYLOAD,2022-03-04 14:00:01,15.71438954,0.0001174,53.2175,29.5162,51.7902,336.0705,-0.0060099,-0.00719209,0.0,0 STARLINK-3174,1 51468U 22010N   22063.58335648 -.00719209  00000-0 -60099-2 0  9990,2 51468  53.2175  29.5162 0001174  51.7902 336.0705 15.71438954  5850,6732.920999999999,91.636,355.576,353.995,0.0
51468.0,STARLINK-3174,PAYLOAD,2022-03-04 22:00:00,15.70927689,0.0001475,53.2177,27.8728,42.5628,71.7317,-0.0061136,-0.00716271,0.0,0 STARLINK-3174,1 51468U 22010N   22063.91667824 -.00716271  00000-0 -61136-2 0  9990,2 51468  53.2177  27.8728 0001475  42.5628  71.7317 15.70927689  3709,6734.380999999999,91.666,357.24,355.25300000000016,0.0
51468.0,STARLINK-3174,PAYLOAD,2022-03-05 06:00:00,15.70318738,0.000145,53.2178,26.2297,50.2586,149.974,-0.0050256,-0.00583187,0.0,0 STARLINK-3174,1 51468U 22010N   22064.25001157 -.00583187  00000-0 -50256-2 0  9998,2 51468  53.2178  26.2297 0001450  50.2586 149.9740 15.70318738  3679,6736.121999999999,91.701,358.964,357.011,0.0
51468.0,STARLINK-3174,PAYLOAD,2022-03-05 14:00:01,15.69910512,0.0001211,53.2175,24.5921,60.4701,224.9819,-0.0064334,-0.00721636,0.0,0 STARLINK-3174,1 51468U 22010N   22064.58334491 -.00721636  00000-0 -64334-2 0  9999,2 51468  53.2175  24.5921 0001211  60.4701 224.9819 15.69910512  3686,6737.29,91.725,359.971,358.339,0.0
51468.0,STARLINK-3174,PAYLOAD,2022-03-05 16:00:00,15.69780168,0.0001250999999999,53.2175,24.1818,45.7983,350.8773,-0.0064169,-0.00716341,0.0,0 STARLINK-3174,1 51468U 22010N   22064.66667824 -.00716341  00000-0 -64169-2 0  9990,2 51468  53.2175  24.1818 0001251  45.7983 350.8773 15.69780168  6020,6737.663000000001,91.733,360.371,358.685,0.0
51468.0,STARLINK-3174,PAYLOAD,2022-03-05 22:00:01,15.693988,0.0001226,53.2176,22.9528,51.5896,318.5887,-0.0065345,-0.00717811,0.0,0 STARLINK-3174,1 51468U 22010N   22064.91668981 -.00717811  00000-0 -65345-2 0  9993,2 51468  53.2176  22.9528 0001226  51.5896 318.5887 15.69398800  3724,6738.754,91.755,361.446,359.793,0.0
51468.0,STARLINK-3174,PAYLOAD,2022-03-06 14:00:01,15.68320987,0.0001503,53.2175,19.6768,45.4778,132.1483,-0.0060427,-0.00640802,0.0,0 STARLINK-3174,1 51468U 22010N   22065.58334491 -.00640802  00000-0 -60427-2 0  9994,2 51468  53.2175  19.6768 0001503  45.4778 132.1483 15.68320987  6175,6741.842,91.818,364.72,362.693,0.0
51468.0,STARLINK-3174,PAYLOAD,2022-03-06 22:00:00,15.67869063,0.0001385999999999,53.2177,18.044,53.2873,207.1289,-0.0069566,-0.00717356,0.0,0 STARLINK-3174,1 51468U 22010N   22065.91667824 -.00717356  00000-0 -69566-2 0  9992,2 51468  53.2177  18.0440 0001386  53.2873 207.1289 15.67869063  3704,6743.137,91.844,365.937,364.067,0.0
51468.0,STARLINK-3174,PAYLOAD,2022-03-07 06:00:00,15.67359188,0.0001379,53.2177,16.4122,44.7721,297.8522,-0.0071178,-0.00718665,0.0,0 STARLINK-3174,1 51468U 22010N   22066.25001157 -.00718665  00000-0 -71178-2 0  9997,2 51468  53.2177  16.4122 0001379  44.7721 297.8522 15.67359188  6275,6744.599,91.874,367.394,365.534,0.0
51468.0,STARLINK-3174,PAYLOAD,2022-03-07 12:00:00,15.66977155,0.0001337,53.2175,15.1864,46.8987,266.9808,-0.0072358,-0.00719203,0.0,0 STARLINK-3174,1 51468U 22010N   22066.50001157 -.00719203  00000-0 -72358-2 0  9995,2 51468  53.2175  15.1864 0001337  46.8987 266.9808 15.66977155  3734,6745.695,91.897,368.462,366.659,0.0
51468.0,STARLINK-3174,PAYLOAD,2022-03-07 22:00:00,15.66247558,0.0001273,53.2177,13.144,68.5244,76.7331,-0.006128,-0.00599978,0.0,0 STARLINK-3174,1 51468U 22010N   22066.91667824 -.00599978  00000-0 -61280-2 0  9996,2 51468  53.2177  13.1440 0001273  68.5244  76.7331 15.66247558  3678,6747.79,91.939,370.514,368.796,0.0
51468.0,STARLINK-3174,PAYLOAD,2022-03-08 06:00:02,15.6582633,0.0001438,53.2176,11.5182,54.7906,170.8501,-0.0075096999999999,-0.00712922,0.0,0 STARLINK-3174,1 51468U 22010N   22067.25002315 -.00712922  00000-0 -75097-2 0  9999,2 51468  53.2176  11.5182 0001438  54.7906 170.8501 15.65826330  6439,6749.0,91.964,371.836,369.895,0.0
51468.0,STARLINK-3174,PAYLOAD,2022-03-08 14:00:01,15.65248763,0.0001137,53.2177,9.8861,53.0761,252.2972,-0.0066944,-0.00627415,0.0,0 STARLINK-3174,1 51468U 22010N   22067.58334491 -.00627415  00000-0 -66944-2 0  9991,2 51468  53.2177   9.8861 0001137  53.0761 252.2972 15.65248763  3668,6750.66,91.998,373.293,371.758,0.0
51468.0,STARLINK-3174,PAYLOAD,2022-03-08 22:00:00,15.648099300000002,0.0001214,53.2176,8.2601,52.8745,331.6035,-0.0078897,-0.00718449,0.0,0 STARLINK-3174,1 51468U 22010N   22067.91667824 -.00718449  00000-0 -78897-2 0  9995,2 51468  53.2176   8.2601 0001214  52.8745 331.6035 15.64809930  3690,6751.922,92.024,374.607,372.968,0.0
51468.0,STARLINK-3174,PAYLOAD,2022-03-09 06:00:00,15.6429478,0.0001395999999999,53.2175,6.6355,46.7565,56.2547,-0.007953,-0.00710217,0.0,0 STARLINK-3174,1 51468U 22010N   22068.25001157 -.00710217  00000-0 -79530-2 0  9994,2 51468  53.2175   6.6355 0001396  46.7565  56.2547 15.64294780  6591,6753.405,92.054,376.212,374.327,0.0
51468.0,STARLINK-3174,PAYLOAD,2022-03-09 14:00:01,15.6378798,0.0001252,53.2176,5.0084,65.9733,114.9572,-0.0081731,-0.00714857,0.0,0 STARLINK-3174,1 51468U 22010N   22068.58334491 -.00714857  00000-0 -81731-2 0  9990,2 51468  53.2176   5.0084 0001252  65.9733 114.9572 15.63787980  3703,6754.864000000001,92.084,377.574,375.883,0.0
51468.0,STARLINK-3174,PAYLOAD,2022-03-09 22:00:01,15.63278564,0.0001298,53.2178,3.3847,62.9187,195.3833,-0.0083504,-0.00715703,0.0,0 STARLINK-3174,1 51468U 22010N   22068.91668981 -.00715703  00000-0 -83504-2 0  9992,2 51468  53.2178   3.3847 0001298  62.9187 195.3833 15.63278564  3697,6756.331,92.114,379.073,377.319,0.0
51468.0,STARLINK-3174,PAYLOAD,2022-03-10 06:00:00,15.62766957,0.000114,53.2175,1.7638,65.5424,269.3878,-0.0084856,-0.00712966,0.0,0 STARLINK-3174,1 51468U 22010N   22069.25001157 -.00712966  00000-0 -84856-2 0  9995,2 51468  53.2175   1.7638 0001140  65.5424 269.3878 15.62766957  6740,6757.806,92.144,380.441,378.9,0.0
51468.0,STARLINK-3174,PAYLOAD,2022-03-10 14:00:01,15.62172304,0.0001143,53.2176,0.1389,45.5763,5.4827,-0.0072358999999999,-0.00602164,0.0,0 STARLINK-3174,1 51468U 22010N   22069.58334491 -.00602164  00000-0 -72359-2 0  9994,2 51468  53.2176   0.1389 0001143  45.5763   5.4827 15.62172304  3662,6759.52,92.179,382.158,380.61300000000006,0.0
51468.0,STARLINK-3174,PAYLOAD,2022-03-10 22:00:01,15.61748695,0.0001381,53.2175,358.5206,50.2177,76.3274,-0.0088684,-0.00715765,0.0,0 STARLINK-3174,1 51468U 22010N   22069.91668981 -.00715765  00000-0 -88684-2 0  9995,2 51468  53.2175 358.5206 0001381  50.2177  76.3274 15.61748695  3704,6760.743,92.204,383.541,381.674,0.0
51468.0,STARLINK-3174,PAYLOAD,2022-03-11 04:00:00,15.61365979,0.0001351,53.2174,357.3078,50.8717,41.8065,-0.0089944999999999,-0.00715233,0.0,0 STARLINK-3174,1 51468U 22010N   22070.16667824 -.00715233  00000-0 -89945-2 0  9990,2 51468  53.2174 357.3078 0001351  50.8717  41.8065 15.61365979  6898,6761.847,92.227,384.626,382.799,0.0
51468.0,STARLINK-3174,PAYLOAD,2022-03-11 14:00:01,15.60727831,0.0001182,53.2176,355.2835,70.4963,205.0825,-0.0092011,-0.00713847,0.0,0 STARLINK-3174,1 51468U 22010N   22070.58334491 -.00713847  00000-0 -92011-2 0  9994,2 51468  53.2176 355.2835 0001182  70.4963 205.0825 15.60727831  3670,6763.69,92.265,386.355,384.756,0.0
51468.0,STARLINK-3174,PAYLOAD,2022-03-11 22:00:00,15.60220148,0.0001196,53.2177,353.6677,62.5282,286.6793,-0.0094384,-0.00717689,0.0,0 STARLINK-3174,1 51468U 22010N   22070.91667824 -.00717689  00000-0 -94384-2 0  9993,2 51468  53.2177 353.6677 0001196  62.5282 286.6793 15.60220148  3687,6765.158,92.295,387.832,386.214,0.0
51468.0,STARLINK-3174,PAYLOAD,2022-03-12 06:00:00,15.59706544,0.0001116,53.2174,352.0537,63.6711,358.55400000000014,-0.0095309,-0.00711111,0.0,0 STARLINK-3174,1 51468U 22010N   22071.25001157 -.00711111  00000-0 -95309-2 0  9994,2 51468  53.2174 352.0537 0001116  63.6711 358.5540 15.59706544  7065,6766.643,92.325,389.263,387.753,0.0
51468.0,STARLINK-3174,PAYLOAD,2022-03-12 14:00:01,15.59196716,0.0001246,53.2175,350.4377,61.6959,72.9347,-0.009721,-0.00711273,0.0,0 STARLINK-3174,1 51468U 22010N   22071.58334491 -.00711273  00000-0 -97210-2 0  9992,2 51468  53.2175 350.4377 0001246  61.6959  72.9347 15.59196716  3709,6768.118,92.355,390.826,389.139,0.0
51468.0,STARLINK-3174,PAYLOAD,2022-03-12 22:00:00,15.58687549,0.0001426999999999,53.2177,348.8257,57.6422,148.7793,-0.0099338,-0.00712758,0.0,0 STARLINK-3174,1 51468U 22010N   22071.91667824 -.00712758  00000-0 -99338-2 0  9990,2 51468  53.2177 348.8257 0001427  57.6422 148.7793 15.58687549  3705,6769.592,92.385,392.423,390.49,0.0
51468.0,STARLINK-3174,PAYLOAD,2022-03-13 06:00:00,15.58176772,0.0001174,53.2173,347.2151,78.3395,199.2601,-0.010096,-0.00710609,0.0,0 STARLINK-3174,1 51468U 22010N   22072.25001157 -.00710609  00000-0 -10096-1 0  9995,2 51468  53.2173 347.2151 0001174  78.3395 199.2601 15.58176772  7215,6771.071,92.416,393.731,392.141,0.0
51468.0,STARLINK-3174,PAYLOAD,2022-03-13 14:00:01,15.57666681,0.0001102,53.2174,345.603,66.3179,281.8492,-0.010304,-0.00711302,0.0,0 STARLINK-3174,1 51468U 22010N   22072.58334491 -.00711302  00000-0 -10304-1 0  9994,2 51468  53.2174 345.6030 0001102  66.3179 281.8492 15.57666681  3711,6772.549,92.446,395.16,393.668,0.0
